{
    "links": {
        "self": "http://www.neowsapp.com/rest/v1/neo/3592019?api_key=iIulBulltgU6a56xZRHN4H3l9WmuAYTsLGpBGhQ2"
    },
    "id": "3592019",
    "neo_reference_id": "3592019",
    "name": "(2012 AZ)",
    "designation": "2012 AZ",
    "nasa_jpl_url": "http://ssd.jpl.nasa.gov/sbdb.cgi?sstr=3592019",
    "absolute_magnitude_h": 25.8,
    "estimated_diameter": {
        "kilometers": {
            "estimated_diameter_min": 0.0183888672,
            "estimated_diameter_max": 0.0411187571
        },
        "meters": {
            "estimated_diameter_min": 18.388867207,
            "estimated_diameter_max": 41.1187571041
        },
        "miles": {
            "estimated_diameter_min": 0.0114263088,
            "estimated_diameter_max": 0.0255500032
        },
        "feet": {
            "estimated_diameter_min": 60.3309310875,
            "estimated_diameter_max": 134.9040630575
        }
    },
    "is_potentially_hazardous_asteroid": false,
    "close_approach_data": [
        {
            "close_approach_date": "2012-01-13",
            "close_approach_date_full": "2012-Jan-13 23:18",
            "epoch_date_close_approach": 1326496680000,
            "relative_velocity": {
                "kilometers_per_second": "11.0606091639",
                "kilometers_per_hour": "39818.1929900832",
                "miles_per_hour": "24741.4766387548"
            },
            "miss_distance": {
                "astronomical": "0.0405553122",
                "lunar": "15.7760164458",
                "kilometers": "6066988.322305014",
                "miles": "3769851.7331326332"
            },
            "orbiting_body": "Earth"
        }
    ],
    "orbital_data": {
        "orbit_id": "5",
        "orbit_determination_date": "2019-07-16 06:14:54",
        "first_observation_date": "2012-01-02",
        "last_observation_date": "2012-01-04",
        "data_arc_in_days": 2,
        "observations_used": 17,
        "orbit_uncertainty": "8",
        "minimum_orbit_intersection": ".0332534",
        "jupiter_tisserand_invariant": "4.820",
        "epoch_osculation": "2455929.5",
        "eccentricity": ".378919382638422",
        "semi_major_axis": "1.339034451838762",
        "inclination": "5.962638637431695",
        "ascending_node_longitude": "276.8529498598339",
        "orbital_period": "565.9604112112877",
        "perihelion_distance": ".8316483440164407",
        "perihelion_argument": "263.9836915845027",
        "aphelion_distance": "1.846420559661084",
        "perihelion_time": "2455989.891195059245",
        "mean_anomaly": "321.5859523198845",
        "mean_motion": ".6360868938332909",
        "equinox": "J2000",
        "orbit_class": {
            "orbit_class_type": "APO",
            "orbit_class_description": "Near-Earth asteroid orbits which cross the Earth’s orbit similar to that of 1862 Apollo",
            "orbit_class_range": "a (semi-major axis) > 1.0 AU; q (perihelion) < 1.017 AU"
        }
    },
    "is_sentry_object": false
}